NORAD_CAT_ID,OBJECT_NAME,OBJECT_TYPE,EPOCH,MEAN_MOTION,ECCENTRICITY,INCLINATION,RA_OF_ASC_NODE,ARG_OF_PERICENTER,MEAN_ANOMALY,BSTAR,MEAN_MOTION_DOT,MEAN_MOTION_DDOT,TLE_LINE0,TLE_LINE1,TLE_LINE2,SEMIMAJOR_AXIS,PERIOD,APOGEE,PERIGEE,DECAYED
52688.0,STARLINK-4032,PAYLOAD,2022-09-10 14:00:01,15.08819421,0.0001883,53.2162,112.7702,56.2301,112.3376,0.0015933,0.00025146,0.0,0 STARLINK-4032,1 52688U 22053AJ  22253.58334491  .00025146  00000-0  15933-2 0  9993,2 52688  53.2162 112.7702 0001883  56.2301 112.3376 15.08819421  1303,6917.943,95.439,541.111,538.506,0.0
52688.0,STARLINK-4032,PAYLOAD,2022-09-10 22:00:00,15.08826492,0.0002061999999999,53.2161,111.2755,50.9722,129.1757,0.00039372,5.981e-05,0.0,0 STARLINK-4032,1 52688U 22053AJ  22253.91667824  .00005981  00000-0  39372-3 0  9998,2 52688  53.2161 111.2755 0002062  50.9722 129.1757 15.08826492  1307,6917.922,95.438,541.2130000000002,538.36,0.0
52688.0,STARLINK-4032,PAYLOAD,2022-09-11 14:00:01,15.08848255,0.0001911,53.2163,108.2808,56.8909,146.4409,0.0015917,0.00025141,0.0,0 STARLINK-4032,1 52688U 22053AJ  22254.58334491  .00025141  00000-0  15917-2 0  9991,2 52688  53.2163 108.2808 0001911  56.8909 146.4409 15.08848255  1305,6917.855,95.437,541.0419999999998,538.398,0.0
52688.0,STARLINK-4032,PAYLOAD,2022-09-11 22:00:00,15.0885059,0.0002016,53.2163,106.786,49.9897,164.9634,-0.0012500999999999,-0.00020135,0.0,0 STARLINK-4032,1 52688U 22053AJ  22254.91667824 -.00020135  00000-0 -12501-2 0  9993,2 52688  53.2163 106.7860 0002016  49.9897 164.9634 15.08850590 18300,6917.848000000001,95.437,541.1080000000002,538.318,0.0
52688.0,STARLINK-4032,PAYLOAD,2022-09-12 14:00:01,15.08825372,0.0001725,53.2164,103.7913,54.2152,183.9205,0.001243,0.00019542,0.0,0 STARLINK-4032,1 52688U 22053AJ  22255.58334491  .00019542  00000-0  12430-2 0  9997,2 52688  53.2164 103.7913 0001725  54.2152 183.9205 15.08825372  1303,6917.925,95.438,540.9830000000002,538.597,0.0
52688.0,STARLINK-4032,PAYLOAD,2022-09-12 22:00:00,15.08822019,0.0001921,53.2163,102.2965,48.0099,201.7103,0.0012624,0.0001985,0.0,0 STARLINK-4032,1 52688U 22053AJ  22255.91667824  .00019850  00000-0  12624-2 0  9990,2 52688  53.2163 102.2965 0001921  48.0099 201.7103 15.08822019 18457,6917.935,95.439,541.129,538.471,0.0
52688.0,STARLINK-4032,PAYLOAD,2022-09-13 14:00:01,15.08842392,0.0001652,53.2163,99.302,53.7914,219.1083,-0.00054824,-9.003e-05,0.0,0 STARLINK-4032,1 52688U 22053AJ  22256.58334491 -.00009003  00000-0 -54824-3 0  9995,2 52688  53.2163  99.3020 0001652  53.7914 219.1083 15.08842392  1307,6917.873000000001,95.437,540.881,538.595,0.0
52688.0,STARLINK-4032,PAYLOAD,2022-09-13 22:00:00,15.08818336,0.0001827,53.2163,97.8073,46.7386,237.756,0.0015527,0.00024495,0.0,0 STARLINK-4032,1 52688U 22053AJ  22256.91667824  .00024495  00000-0  15527-2 0  9997,2 52688  53.2163  97.8073 0001827  46.7386 237.7560 15.08818336 18605,6917.946999999999,95.439,541.076,538.548,0.0
52688.0,STARLINK-4032,PAYLOAD,2022-09-14 14:00:01,15.0880047,0.0001844999999999,53.217,94.8181,50.7153,256.9549,0.0031566999999999,0.00050255,0.0,0 STARLINK-4032,1 52688U 22053AJ  22257.58334491  .00050255  00000-0  31567-2 0  9997,2 52688  53.2170  94.8181 0001845  50.7153 256.9549 15.08800470  1306,6918.001,95.44,541.143,538.59,0.0
52688.0,STARLINK-4032,PAYLOAD,2022-09-14 22:00:00,15.08836024,0.0001862,53.2162,93.3182,48.4211,270.8429,0.0014587,0.00023001,0.0,0 STARLINK-4032,1 52688U 22053AJ  22257.91667824  .00023001  00000-0  14587-2 0  9995,2 52688  53.2162  93.3182 0001862  48.4211 270.8429 15.08836024  1306,6917.893,95.438,541.0459999999998,538.469,0.0
52688.0,STARLINK-4032,PAYLOAD,2022-09-15 14:00:01,15.08845087,0.0001801,53.2162,90.3238,56.8544,285.6089,0.0004488999999999,6.864e-05,0.0,0 STARLINK-4032,1 52688U 22053AJ  22258.58334491  .00006864  00000-0  44890-3 0  9999,2 52688  53.2162  90.3238 0001801  56.8544 285.6089 15.08845087  1305,6917.865,95.437,540.976,538.484,0.0
52688.0,STARLINK-4032,PAYLOAD,2022-09-15 15:40:04,15.08844319,0.0001691,53.2178,90.0126,53.5739,306.5408,9.1589e-05,1.17e-05,0.0,0 STARLINK-4032,1 52688U 22053AJ  22258.65283370  .00001170  00000-0  91589-4 0  9999,2 52688  53.2178  90.0126 0001691  53.5739 306.5408 15.08844319 18866,6917.8669999999975,95.437,540.9019999999998,538.562,0.0
52688.0,STARLINK-4032,PAYLOAD,2022-09-16 12:20:05,15.08845491,0.0001901,53.217,86.1476,53.1348,306.9818,1.3593e-07,-2.86e-06,0.0,0 STARLINK-4032,1 52688U 22053AJ  22259.51395568 -.00000286  00000-0  13593-6 0  9997,2 52688  53.2170  86.1476 0001901  53.1348 306.9818 15.08845491 19365,6917.864000000001,95.437,541.044,538.414,0.0
52688.0,STARLINK-4032,PAYLOAD,2022-09-16 15:30:52,15.08836442,0.000174,53.2175,85.5517,54.00100000000001,306.1143,3.1442e-05,2.12e-06,0.0,0 STARLINK-4032,1 52688U 22053AJ  22259.64643923  .00000212  00000-0  31442-4 0  9991,2 52688  53.2175  85.5517 0001740  54.0010 306.1143 15.08836442 19387,6917.891,95.438,540.96,538.553,0.0
52688.0,STARLINK-4032,PAYLOAD,2022-09-17 12:10:53,15.08832539,0.0001718,53.2182,81.6872,43.2912,316.8215,-2.3945e-05,-6.69e-06,0.0,0 STARLINK-4032,1 52688U 22053AJ  22260.50756203 -.00000669  00000-0 -23945-4 0  9991,2 52688  53.2182  81.6872 0001718  43.2912 316.8215 15.08832539 19518,6917.903,95.438,540.957,538.58,0.0
52688.0,STARLINK-4032,PAYLOAD,2022-09-17 18:32:25,15.08832445,0.0001683,53.2177,80.4963,54.9929,305.1221,-1.8852e-05,-5.88e-06,0.0,0 STARLINK-4032,1 52688U 22053AJ  22260.77252243 -.00000588  00000-0 -18852-4 0  9996,2 52688  53.2177  80.4963 0001683  54.9929 305.1221 15.08832445 19185,6917.903,95.438,540.933,538.604,0.0
52688.0,STARLINK-4032,PAYLOAD,2022-09-18 12:01:40,15.08834654,0.0001594,53.2179,77.2249,54.0007,306.1133,8.9621e-05,1.138e-05,0.0,0 STARLINK-4032,1 52688U 22053AJ  22261.50116008  .00001138  00000-0  89621-4 0  9998,2 52688  53.2179  77.2249 0001594  54.0007 306.1133 15.08834654 19667,6917.897,95.438,540.864,538.659,0.0
52688.0,STARLINK-4032,PAYLOAD,2022-09-18 18:23:12,15.08838962,0.0001774,53.2178,76.0362,50.8632,309.2517,0.00012281,1.667e-05,0.0,0 STARLINK-4032,1 52688U 22053AJ  22261.76611835  .00001667  00000-0  12281-3 0  9998,2 52688  53.2178  76.0362 0001774  50.8632 309.2517 15.08838962 19708,6917.884,95.438,540.976,538.521,0.0
52688.0,STARLINK-4032,PAYLOAD,2022-09-19 07:06:17,15.08839567,0.000176,53.2178,73.6571,51.9725,308.1426,0.00010276,1.348e-05,0.0,0 STARLINK-4032,1 52688U 22053AJ  22262.29603895  .00001348  00000-0  10276-3 0  9992,2 52688  53.2178  73.6571 0001760  51.9725 308.1426 15.08839567 19780,6917.882,95.438,540.964,538.529,0.0
52688.0,STARLINK-4032,PAYLOAD,2022-09-19 13:27:50,15.08829101,0.0001759,53.2178,72.4678,51.8304,308.2847,9.5285e-05,1.228e-05,0.0,0 STARLINK-4032,1 52688U 22053AJ  22262.56100637  .00001228  00000-0  95285-4 0  9999,2 52688  53.2178  72.4678 0001759  51.8304 308.2847 15.08829101 19821,6917.9140000000025,95.438,540.996,538.562,0.0
52688.0,STARLINK-4032,PAYLOAD,2022-09-20 11:43:14,15.088426,0.0001759,53.2177,68.304,54.8143,305.3014,8.6924e-05,1.096e-05,0.0,0 STARLINK-4032,1 52688U 22053AJ  22263.48836042  .00001096  00000-0  86924-4 0  9990,2 52688  53.2177  68.3040 0001759  54.8143 305.3014 15.08842600 19598,6917.871999999999,95.437,540.9540000000002,538.521,0.0
52688.0,STARLINK-4032,PAYLOAD,2022-09-20 19:40:10,15.08838569,0.0001234,53.2188,66.8142,69.6298,290.4826,-3.0539e-05,-7.74e-06,0.0,0 STARLINK-4032,1 52688U 22053AJ  22263.81956485 -.00000774  00000-0 -30539-4 0  9996,2 52688  53.2188  66.8142 0001234  69.6298 290.4826 15.08838569 19649,6917.885,95.438,540.6030000000002,538.896,0.0
52688.0,STARLINK-4032,PAYLOAD,2022-09-21 13:09:24,15.08839754,0.0001469,53.2189,63.5462,45.9856,314.1257,8.897700000000001e-05,1.128e-05,0.0,0 STARLINK-4032,1 52688U 22053AJ  22264.54820369  .00001128  00000-0  88977-4 0  9999,2 52688  53.2189  63.5462 0001469  45.9856 314.1257 15.08839754 20120,6917.880999999999,95.438,540.762,538.73,0.0
52688.0,STARLINK-4032,PAYLOAD,2022-09-22 13:00:12,15.08835848,0.0001738,53.2182,59.0859,49.7162,310.3982,0.00012777,1.746e-05,0.0,0 STARLINK-4032,1 52688U 22053AJ  22265.54180726  .00001746  00000-0  12777-3 0  9996,2 52688  53.2182  59.0859 0001738  49.7162 310.3982 15.08835848 20273,6917.893,95.438,540.96,538.556,0.0
52688.0,STARLINK-4032,PAYLOAD,2022-09-22 17:46:21,15.088362099999998,0.0001626999999999,53.2189,58.1937,45.3242,314.7883,0.00010788,1.429e-05,0.0,0 STARLINK-4032,1 52688U 22053AJ  22265.74052817  .00001429  00000-0  10788-3 0  9995,2 52688  53.2189  58.1937 0001627  45.3242 314.7883 15.08836210 19938,6917.892,95.438,540.883,538.631,0.0
52688.0,STARLINK-4032,PAYLOAD,2022-09-23 04:54:03,15.08840065,0.0001624,53.2188,56.1126,46.4379,313.6748,0.00011973,1.618e-05,0.0,0 STARLINK-4032,1 52688U 22053AJ  22266.20420664  .00001618  00000-0  11973-3 0  9993,2 52688  53.2188  56.1126 0001624  46.4379 313.6748 15.08840065 20376,6917.88,95.438,540.869,538.622,0.0
52688.0,STARLINK-4032,PAYLOAD,2022-09-23 17:37:08,15.08839403,0.0001841999999999,53.2188,53.7344,41.1157,318.9974,-2.4713e-05,-6.81e-06,0.0,0 STARLINK-4032,1 52688U 22053AJ  22266.73413113 -.00000681  00000-0 -24713-4 0  9990,2 52688  53.2188  53.7344 0001842  41.1157 318.9974 15.08839403 20451,6917.882,95.438,541.021,538.4730000000002,0.0
52688.0,STARLINK-4032,PAYLOAD,2022-09-24 15:52:32,15.08845761,0.0001903,53.2189,49.5717,41.7179,318.3958,0.00012377,1.683e-05,0.0,0 STARLINK-4032,1 52688U 22053AJ  22267.66148447  .00001683  00000-0  12377-3 0  9991,2 52688  53.2189  49.5717 0001903  41.7179 318.3958 15.08845761 20222,6917.863,95.437,541.044,538.411,0.0
52688.0,STARLINK-4032,PAYLOAD,2022-09-25 03:00:13,15.08856144,0.0001927,53.2189,47.4903,43.4588,316.6556,0.00016641,2.362e-05,0.0,0 STARLINK-4032,1 52688U 22053AJ  22268.12515480  .00002362  00000-0  16641-3 0  9991,2 52688  53.2189  47.4903 0001927  43.4588 316.6556 15.08856144 20294,6917.831,95.437,541.029,538.363,0.0
